SL-3 R/B                
1 13403U 82079B   26114.13494509  .00003740  00000+0  14631-3 0  9997
2 13403  81.1445 139.3985 0024358  15.7147 344.4836 15.25299794384629
SL-14 R/B               
1 13553U 82092B   26114.00670066  .00000326  00000+0  33755-4 0  9994
2 13553  82.5649  98.9960 0021183 147.0407 270.5328 14.86703514335661
SL-3 R/B                
1 13819U 83010B   26114.03534571  .00009612  00000+0  18454-3 0  9998
2 13819  81.1012 306.5848 0015125 247.5997 112.3646 15.47687481364959
SL-3 R/B                
1 14208U 83075B   26114.13693047  .00008995  00000+0  22991-3 0  9991
2 14208  97.6134 120.4737 0022969  69.5512 290.8196 15.39426162337149
COSMOS 1536             
1 14699U 84013A   26113.95477347  .00005060  00000+0  20431-3 0  9997
2 14699  82.5445  62.8240 0016047 119.0380 241.2468 15.24421039279513
SL-14 R/B               
1 14820U 84027B   26114.21256698  .00000333  00000+0  35162-4 0  9998
2 14820  82.5444 202.3255 0018043 177.8278 182.3020 14.86021027254399
SL-8 R/B                
1 15483U 85006B   26114.16373281  .00000157  00000+0  60740-4 0  9998
2 15483  74.0457 177.4747 0017196  79.9955 347.4997 14.37810930160562
SL-12 R/B(2)            
1 15772U 85042D   26114.15885154  .00000113  00000+0  72067-4 0  9992
2 15772  71.1097 351.6669 0033384  52.8001 118.5128 14.21994552120856
SL-14 R/B               
1 15945U 85069B   26114.11608128  .00000291  00000+0  30042-4 0  9997
2 15945  82.5277 342.2277 0019900  45.3746 314.9090 14.86475628179589
SL-16 R/B               
1 16182U 85097B   26114.18682391 -.00000190  00000+0 -71186-4 0  9997
2 16182  71.0043  44.7649 0008177 203.9577 258.9815 14.16606672 93677
SL-14 R/B               
1 16496U 86006B   26114.21590898  .00000598  00000+0  60394-4 0  9999
2 16496  82.5293 216.8915 0077791 121.2592 239.6275 14.86888680155970
COSMOS 1743             
1 16719U 86034A   26114.16924387  .00038720  00000+0  43392-3 0  9992
2 16719  82.5327  25.9579 0007525 107.3705 252.8377 15.62469862187348
