CCSDS_OMM_VERS = 2.0
CREATION_DATE  = 
ORIGINATOR     = 

OBJECT_NAME    = SL-3 R/B
OBJECT_ID      = 1982-079B
CENTER_NAME    = EARTH
REF_FRAME      = TEME
TIME_SYSTEM    = UTC
MEAN_ELEMENT_THEORY = SGP/SGP4

EPOCH          = 2026-04-24T03:14:19.255776
MEAN_MOTION    = 15.25299794
ECCENTRICITY   = .0024358
INCLINATION    = 81.1445
RA_OF_ASC_NODE = 139.3985
ARG_OF_PERICENTER = 15.7147
MEAN_ANOMALY   = 344.4836

EPHEMERIS_TYPE = 0
CLASSIFICATION_TYPE = U
NORAD_CAT_ID   = 13403
ELEMENT_SET_NO = 999
REV_AT_EPOCH   = 38462
BSTAR          = .14631E-3
MEAN_MOTION_DOT = .374E-4
MEAN_MOTION_DDOT = 0

CCSDS_OMM_VERS = 2.0
CREATION_DATE  = 
ORIGINATOR     = 

OBJECT_NAME    = SL-14 R/B
OBJECT_ID      = 1982-092B
CENTER_NAME    = EARTH
REF_FRAME      = TEME
TIME_SYSTEM    = UTC
MEAN_ELEMENT_THEORY = SGP/SGP4

EPOCH          = 2026-04-24T00:09:38.937024
MEAN_MOTION    = 14.86703514
ECCENTRICITY   = .0021183
INCLINATION    = 82.5649
RA_OF_ASC_NODE = 98.9960
ARG_OF_PERICENTER = 147.0407
MEAN_ANOMALY   = 270.5328

EPHEMERIS_TYPE = 0
CLASSIFICATION_TYPE = U
NORAD_CAT_ID   = 13553
ELEMENT_SET_NO = 999
REV_AT_EPOCH   = 33566
BSTAR          = .33755E-4
MEAN_MOTION_DOT = .326E-5
MEAN_MOTION_DDOT = 0

CCSDS_OMM_VERS = 2.0
CREATION_DATE  = 
ORIGINATOR     = 

OBJECT_NAME    = SL-3 R/B
OBJECT_ID      = 1983-010B
CENTER_NAME    = EARTH
REF_FRAME      = TEME
TIME_SYSTEM    = UTC
MEAN_ELEMENT_THEORY = SGP/SGP4

EPOCH          = 2026-04-24T00:50:53.869344
MEAN_MOTION    = 15.47687481
ECCENTRICITY   = .0015125
INCLINATION    = 81.1012
RA_OF_ASC_NODE = 306.5848
ARG_OF_PERICENTER = 247.5997
MEAN_ANOMALY   = 112.3646

EPHEMERIS_TYPE = 0
CLASSIFICATION_TYPE = U
NORAD_CAT_ID   = 13819
ELEMENT_SET_NO = 999
REV_AT_EPOCH   = 36495
BSTAR          = .18454E-3
MEAN_MOTION_DOT = .9612E-4
MEAN_MOTION_DDOT = 0

CCSDS_OMM_VERS = 2.0
CREATION_DATE  = 
ORIGINATOR     = 

OBJECT_NAME    = SL-3 R/B
OBJECT_ID      = 1983-075B
CENTER_NAME    = EARTH
REF_FRAME      = TEME
TIME_SYSTEM    = UTC
MEAN_ELEMENT_THEORY = SGP/SGP4

EPOCH          = 2026-04-24T03:17:10.792608
MEAN_MOTION    = 15.39426162
ECCENTRICITY   = .0022969
INCLINATION    = 97.6134
RA_OF_ASC_NODE = 120.4737
ARG_OF_PERICENTER = 69.5512
MEAN_ANOMALY   = 290.8196

EPHEMERIS_TYPE = 0
CLASSIFICATION_TYPE = U
NORAD_CAT_ID   = 14208
ELEMENT_SET_NO = 999
REV_AT_EPOCH   = 33714
BSTAR          = .22991E-3
MEAN_MOTION_DOT = .8995E-4
MEAN_MOTION_DDOT = 0

CCSDS_OMM_VERS = 2.0
CREATION_DATE  = 
ORIGINATOR     = 

OBJECT_NAME    = COSMOS 1536
OBJECT_ID      = 1984-013A
CENTER_NAME    = EARTH
REF_FRAME      = TEME
TIME_SYSTEM    = UTC
MEAN_ELEMENT_THEORY = SGP/SGP4

EPOCH          = 2026-04-23T22:54:52.427808
MEAN_MOTION    = 15.24421039
ECCENTRICITY   = .0016047
INCLINATION    = 82.5445
RA_OF_ASC_NODE = 62.8240
ARG_OF_PERICENTER = 119.0380
MEAN_ANOMALY   = 241.2468

EPHEMERIS_TYPE = 0
CLASSIFICATION_TYPE = U
NORAD_CAT_ID   = 14699
ELEMENT_SET_NO = 999
REV_AT_EPOCH   = 27951
BSTAR          = .20431E-3
MEAN_MOTION_DOT = .506E-4
MEAN_MOTION_DDOT = 0

CCSDS_OMM_VERS = 2.0
CREATION_DATE  = 
ORIGINATOR     = 

OBJECT_NAME    = SL-14 R/B
OBJECT_ID      = 1984-027B
CENTER_NAME    = EARTH
REF_FRAME      = TEME
TIME_SYSTEM    = UTC
MEAN_ELEMENT_THEORY = SGP/SGP4

EPOCH          = 2026-04-24T05:06:05.787072
MEAN_MOTION    = 14.86021027
ECCENTRICITY   = .0018043
INCLINATION    = 82.5444
RA_OF_ASC_NODE = 202.3255
ARG_OF_PERICENTER = 177.8278
MEAN_ANOMALY   = 182.3020

EPHEMERIS_TYPE = 0
CLASSIFICATION_TYPE = U
NORAD_CAT_ID   = 14820
ELEMENT_SET_NO = 999
REV_AT_EPOCH   = 25439
BSTAR          = .35162E-4
MEAN_MOTION_DOT = .333E-5
MEAN_MOTION_DDOT = 0

CCSDS_OMM_VERS = 2.0
CREATION_DATE  = 
ORIGINATOR     = 

OBJECT_NAME    = SL-8 R/B
OBJECT_ID      = 1985-006B
CENTER_NAME    = EARTH
REF_FRAME      = TEME
TIME_SYSTEM    = UTC
MEAN_ELEMENT_THEORY = SGP/SGP4

EPOCH          = 2026-04-24T03:55:46.514784
MEAN_MOTION    = 14.37810930
ECCENTRICITY   = .0017196
INCLINATION    = 74.0457
RA_OF_ASC_NODE = 177.4747
ARG_OF_PERICENTER = 79.9955
MEAN_ANOMALY   = 347.4997

EPHEMERIS_TYPE = 0
CLASSIFICATION_TYPE = U
NORAD_CAT_ID   = 15483
ELEMENT_SET_NO = 999
REV_AT_EPOCH   = 16056
BSTAR          = .6074E-4
MEAN_MOTION_DOT = .157E-5
MEAN_MOTION_DDOT = 0

CCSDS_OMM_VERS = 2.0
CREATION_DATE  = 
ORIGINATOR     = 

OBJECT_NAME    = SL-12 R/B(2)
OBJECT_ID      = 1985-042D
CENTER_NAME    = EARTH
REF_FRAME      = TEME
TIME_SYSTEM    = UTC
MEAN_ELEMENT_THEORY = SGP/SGP4

EPOCH          = 2026-04-24T03:48:44.773056
MEAN_MOTION    = 14.21994552
ECCENTRICITY   = .0033384
INCLINATION    = 71.1097
RA_OF_ASC_NODE = 351.6669
ARG_OF_PERICENTER = 52.8001
MEAN_ANOMALY   = 118.5128

EPHEMERIS_TYPE = 0
CLASSIFICATION_TYPE = U
NORAD_CAT_ID   = 15772
ELEMENT_SET_NO = 999
REV_AT_EPOCH   = 12085
BSTAR          = .72067E-4
MEAN_MOTION_DOT = .113E-5
MEAN_MOTION_DDOT = 0

CCSDS_OMM_VERS = 2.0
CREATION_DATE  = 
ORIGINATOR     = 

OBJECT_NAME    = SL-14 R/B
OBJECT_ID      = 1985-069B
CENTER_NAME    = EARTH
REF_FRAME      = TEME
TIME_SYSTEM    = UTC
MEAN_ELEMENT_THEORY = SGP/SGP4

EPOCH          = 2026-04-24T02:47:09.422592
MEAN_MOTION    = 14.86475628
ECCENTRICITY   = .00199
INCLINATION    = 82.5277
RA_OF_ASC_NODE = 342.2277
ARG_OF_PERICENTER = 45.3746
MEAN_ANOMALY   = 314.9090

EPHEMERIS_TYPE = 0
CLASSIFICATION_TYPE = U
NORAD_CAT_ID   = 15945
ELEMENT_SET_NO = 999
REV_AT_EPOCH   = 17958
BSTAR          = .30042E-4
MEAN_MOTION_DOT = .291E-5
MEAN_MOTION_DDOT = 0

CCSDS_OMM_VERS = 2.0
CREATION_DATE  = 
ORIGINATOR     = 

OBJECT_NAME    = SL-16 R/B
OBJECT_ID      = 1985-097B
CENTER_NAME    = EARTH
REF_FRAME      = TEME
TIME_SYSTEM    = UTC
MEAN_ELEMENT_THEORY = SGP/SGP4

EPOCH          = 2026-04-24T04:29:01.585824
MEAN_MOTION    = 14.16606672
ECCENTRICITY   = .0008177
INCLINATION    = 71.0043
RA_OF_ASC_NODE = 44.7649
ARG_OF_PERICENTER = 203.9577
MEAN_ANOMALY   = 258.9815

EPHEMERIS_TYPE = 0
CLASSIFICATION_TYPE = U
NORAD_CAT_ID   = 16182
ELEMENT_SET_NO = 999
REV_AT_EPOCH   = 9367
BSTAR          = -.71186E-4
MEAN_MOTION_DOT = -.19E-5
MEAN_MOTION_DDOT = 0

CCSDS_OMM_VERS = 2.0
CREATION_DATE  = 
ORIGINATOR     = 

OBJECT_NAME    = SL-14 R/B
OBJECT_ID      = 1986-006B
CENTER_NAME    = EARTH
REF_FRAME      = TEME
TIME_SYSTEM    = UTC
MEAN_ELEMENT_THEORY = SGP/SGP4

EPOCH          = 2026-04-24T05:10:54.535872
MEAN_MOTION    = 14.86888680
ECCENTRICITY   = .0077791
INCLINATION    = 82.5293
RA_OF_ASC_NODE = 216.8915
ARG_OF_PERICENTER = 121.2592
MEAN_ANOMALY   = 239.6275

EPHEMERIS_TYPE = 0
CLASSIFICATION_TYPE = U
NORAD_CAT_ID   = 16496
ELEMENT_SET_NO = 999
REV_AT_EPOCH   = 15597
BSTAR          = .60394E-4
MEAN_MOTION_DOT = .598E-5
MEAN_MOTION_DDOT = 0

CCSDS_OMM_VERS = 2.0
CREATION_DATE  = 
ORIGINATOR     = 

OBJECT_NAME    = COSMOS 1743
OBJECT_ID      = 1986-034A
CENTER_NAME    = EARTH
REF_FRAME      = TEME
TIME_SYSTEM    = UTC
MEAN_ELEMENT_THEORY = SGP/SGP4

EPOCH          = 2026-04-24T04:03:42.670368
MEAN_MOTION    = 15.62469862
ECCENTRICITY   = .0007525
INCLINATION    = 82.5327
RA_OF_ASC_NODE = 25.9579
ARG_OF_PERICENTER = 107.3705
MEAN_ANOMALY   = 252.8377

EPHEMERIS_TYPE = 0
CLASSIFICATION_TYPE = U
NORAD_CAT_ID   = 16719
ELEMENT_SET_NO = 999
REV_AT_EPOCH   = 18734
BSTAR          = .43392E-3
MEAN_MOTION_DOT = .3872E-3
MEAN_MOTION_DDOT = 0

